HULIANWANG DIGUI-107    
1 66917U 25285C   25361.22205904  .00000147  00000+0  19339-3 0  9991
2 66917  50.0039  58.2564 0006143 334.0629  25.9966 14.02324482  2941
HULIANWANG DIGUI-108    
1 66918U 25285D   25361.22143969 -.00000069  00000+0  52834-4 0  9996
2 66918  50.0071  58.2614 0005393 329.7125  30.3467 14.02455975  2940
HULIANWANG DIGUI-109    
1 66919U 25285E   25361.21942698  .00000346  00000+0  32054-3 0  9990
2 66919  50.0087  58.2555 0006895 342.3929  17.6735 14.02596481  2947
HULIANWANG DIGUI-110    
1 66920U 25285F   25361.21865187  .00000035  00000+0  11948-3 0  9993
2 66920  50.0093  58.2630 0004206 338.6901  21.3827 14.02751895  2948
HULIANWANG DIGUI-111    
1 66921U 25285G   25361.21781358 -.00000126  00000+0  16104-4 0  9993
2 66921  50.0134  58.2558 0005129 342.7757  17.2972 14.02951958  2941
HULIANWANG DIGUI-112    
1 66922U 25285H   25361.21658648  .00000114  00000+0  16957-3 0  9990
2 66922  50.0124  58.2424 0005268 355.1139   4.9713 14.03084437  2945
HULIANWANG DIGUI-113    
1 66923U 25285J   25361.21522566 -.00000156  00000+0 -32767-5 0  9997
2 66923  50.0104  58.2357 0003619 348.6644  11.4178 14.03204548  2940
CZ-8A R/B               
1 66924U 25285K   25361.19149694  .00000072  00000+0  83991-4 0  9991
2 66924  50.0086  54.6380 0119228 157.6833 202.9332 14.30507650  2992
STARLINK-35945          
1 66925U 25286A   25361.16668980 -.02052368  00000+0 -34497-1 0  9997
2 66925  53.1594 338.7221 0001177  78.8781 336.8623 15.54372597  4304
STARLINK-35942          
1 66926U 25286B   25361.16668980 -.01941700  00000+0 -34924-1 0  9999
2 66926  53.1597 338.7767 0001032 103.1707 285.3026 15.52346270  4305
STARLINK-35943          
1 66927U 25286C   25361.16668980 -.01943066  00000+0 -34948-1 0  9993
2 66927  53.1597 338.7729 0001117 104.8130 285.5757 15.52348893  4302
STARLINK-35944          
1 66928U 25286D   25361.16668980 -.01927902  00000+0 -34654-1 0  9999
2 66928  53.1596 338.7804 0001175  98.1716 288.3820 15.52340361  4309
